CTC2_L_00641001-01
1 13164U 26879YH  26070.40851852  .00000000  00000+0  00000-0 0  9994
2 13164  55.0000   0.0000 0000000   0.0000   0.0000  3.95927803    14
CTC2_L_00641001-02
1 13165U 24958WY  26070.40851852  .00000000  00000+0  00000-0 0  9991
2 13165  55.0000   0.0000 0000000   0.0000  36.0000  3.95927803    14
CTC2_L_00641001-03
1 13166U 24303SM  26070.40851852  .00000000  00000+0  00000-0 0  9996
2 13166  55.0000   0.0000 0000000   0.0000  72.0000  3.95927803    15
CTC2_L_00641001-04
1 13167U 24186WP  26070.40851852  .00000000  00000+0  00000-0 0  9996
2 13167  55.0000   0.0000 0000000   0.0000 108.0000  3.95927803    16
CTC2_L_00641001-05
1 13168U 26643GQ  26070.40851852  .00000000  00000+0  00000-0 0  9997
2 13168  55.0000   0.0000 0000000   0.0000 144.0000  3.95927803    17
CTC2_L_00641001-06
1 13169U 23486FD  26070.40851852  .00000000  00000+0  00000-0 0  9990
2 13169  55.0000   0.0000 0000000   0.0000 180.0000  3.95927803    18
CTC2_L_00641001-07
1 13170U 22632YA  26070.40851852  .00000000  00000+0  00000-0 0  9994
2 13170  55.0000   0.0000 0000000   0.0000 216.0000  3.95927803    10
CTC2_L_00641001-08
1 13171U 26800GF  26070.40851852  .00000000  00000+0  00000-0 0  9996
2 13171  55.0000   0.0000 0000000   0.0000 252.0000  3.95927803    11
CTC2_L_00641001-09
1 13172U 26831AZ  26070.40851852  .00000000  00000+0  00000-0 0  9991
2 13172  55.0000   0.0000 0000000   0.0000 288.0000  3.95927803    11
CTC2_L_00641001-10
1 13173U 22299XI  26070.40851852  .00000000  00000+0  00000-0 0  9996
2 13173  55.0000   0.0000 0000000   0.0000 324.0000  3.95927803    13
CTC2_L_00641002-01
1 13174U 24932MB  26070.40851852  .00000000  00000+0  00000-0 0  9993
2 13174  55.0000  30.0000 0000000   0.0000  12.0000  3.95927803    11
CTC2_L_00641002-02
1 13175U 25032PO  26070.40851852  .00000000  00000+0  00000-0 0  9996
2 13175  55.0000  30.0000 0000000   0.0000  48.0000  3.95927803    11
CTC2_L_00641002-03
1 13176U 24751BN  26070.40851852  .00000000  00000+0  00000-0 0  9994
2 13176  55.0000  30.0000 0000000   0.0000  84.0000  3.95927803    12
CTC2_L_00641002-04
1 13177U 23508VV  26070.40851852  .00000000  00000+0  00000-0 0  9994
2 13177  55.0000  30.0000 0000000   0.0000 120.0000  3.95927803    14
CTC2_L_00641002-05
1 13178U 23039S   26070.40851852  .00000000  00000+0  00000-0 0  9994
2 13178  55.0000  30.0000 0000000   0.0000 156.0000  3.95927803    14
CTC2_L_00641002-06
1 13179U 22975LR  26070.40851852  .00000000  00000+0  00000-0 0  9993
2 13179  55.0000  30.0000 0000000   0.0000 192.0000  3.95927803    15
CTC2_L_00641002-07
1 13180U 24223IL  26070.40851852  .00000000  00000+0  00000-0 0  9993
2 13180  55.0000  30.0000 0000000   0.0000 228.0000  3.95927803    17
CTC2_L_00641002-08
1 13181U 26633PH  26070.40851852  .00000000  00000+0  00000-0 0  9991
2 13181  55.0000  30.0000 0000000   0.0000 264.0000  3.95927803    18
CTC2_L_00641002-09
1 13182U 23743ZV  26070.40851852  .00000000  00000+0  00000-0 0  9991
2 13182  55.0000  30.0000 0000000   0.0000 300.0000  3.95927803    10
CTC2_L_00641002-10
1 13183U 24980D   26070.40851852  .00000000  00000+0  00000-0 0  9996
2 13183  55.0000  30.0000 0000000   0.0000 336.0000  3.95927803    10
CTC2_L_00641003-01
1 13184U 24712EN  26070.40851852  .00000000  00000+0  00000-0 0  9990
2 13184  55.0000  60.0000 0000000   0.0000  24.0000  3.95927803    18
CTC2_L_00641003-02
1 13185U 23552FT  26070.40851852  .00000000  00000+0  00000-0 0  9992
2 13185  55.0000  60.0000 0000000   0.0000  60.0000  3.95927803    19
CTC2_L_00641003-03
1 13186U 24248WF  26070.40851852  .00000000  00000+0  00000-0 0  9996
2 13186  55.0000  60.0000 0000000   0.0000  96.0000  3.95927803    19
CTC2_L_00641003-04
1 13187U 23337GH  26070.40851852  .00000000  00000+0  00000-0 0  9995
2 13187  55.0000  60.0000 0000000   0.0000 132.0000  3.95927803    11
CTC2_L_00641003-05
1 13188U 24595MO  26070.40851852  .00000000  00000+0  00000-0 0  9993
2 13188  55.0000  60.0000 0000000   0.0000 168.0000  3.95927803    11
CTC2_L_00641003-06
1 13189U 25424YQ  26070.40851852  .00000000  00000+0  00000-0 0  9996
2 13189  55.0000  60.0000 0000000   0.0000 204.0000  3.95927803    13
CTC2_L_00641003-07
1 13190U 25632BP  26070.40851852  .00000000  00000+0  00000-0 0  9999
2 13190  55.0000  60.0000 0000000   0.0000 240.0000  3.95927803    15
CTC2_L_00641003-08
1 13191U 23347YF  26070.40851852  .00000000  00000+0  00000-0 0  9991
2 13191  55.0000  60.0000 0000000   0.0000 276.0000  3.95927803    15
CTC2_L_00641003-09
1 13192U 22775EV  26070.40851852  .00000000  00000+0  00000-0 0  9996
2 13192  55.0000  60.0000 0000000   0.0000 312.0000  3.95927803    17
CTC2_L_00641003-10
1 13193U 25748QG  26070.40851852  .00000000  00000+0  00000-0 0  9990
2 13193  55.0000  60.0000 0000000   0.0000 348.0000  3.95927803    17
CTC2_L_00641004-01
1 13194U 23172VQ  26070.40851852  .00000000  00000+0  00000-0 0  9990
2 13194  55.0000  90.0000 0000000   0.0000  36.0000  3.95927803    15
CTC2_L_00641004-02
1 13195U 23394AW  26070.40851852  .00000000  00000+0  00000-0 0  9997
2 13195  55.0000  90.0000 0000000   0.0000  72.0000  3.95927803    16
CTC2_L_00641004-03
1 13196U 22284CD  26070.40851852  .00000000  00000+0  00000-0 0  9995
2 13196  55.0000  90.0000 0000000   0.0000 108.0000  3.95927803    17
CTC2_L_00641004-04
1 13197U 24288OM  26070.40851852  .00000000  00000+0  00000-0 0  9992
2 13197  55.0000  90.0000 0000000   0.0000 144.0000  3.95927803    18
CTC2_L_00641004-05
1 13198U 23212KU  26070.40851852  .00000000  00000+0  00000-0 0  9999
2 13198  55.0000  90.0000 0000000   0.0000 180.0000  3.95927803    19
CTC2_L_00641004-06
1 13199U 23251UX  26070.40851852  .00000000  00000+0  00000-0 0  9993
2 13199  55.0000  90.0000 0000000   0.0000 216.0000  3.95927803    10
CTC2_L_00641004-07
1 13200U 25198GL  26070.40851852  .00000000  00000+0  00000-0 0  9998
2 13200  55.0000  90.0000 0000000   0.0000 252.0000  3.95927803    13
CTC2_L_00641004-08
1 13201U 25692TK  26070.40851852  .00000000  00000+0  00000-0 0  9998
2 13201  55.0000  90.0000 0000000   0.0000 288.0000  3.95927803    13
CTC2_L_00641004-09
1 13202U 23160ZX  26070.40851852  .00000000  00000+0  00000-0 0  9997
2 13202  55.0000  90.0000 0000000   0.0000 324.0000  3.95927803    15
CTC2_L_00641004-10
1 13203U 23733AO  26070.40851852  .00000000  00000+0  00000-0 0  9994
2 13203  55.0000  90.0000 0000000   0.0000   0.0000  3.95927803    17
CTC2_L_00641005-01
1 13204U 22172ZT  26070.40851852  .00000000  00000+0  00000-0 0  9991
2 13204  55.0000 120.0000 0000000   0.0000  48.0000  3.95927803    14
CTC2_L_00641005-02
1 13205U 24442NS  26070.40851852  .00000000  00000+0  00000-0 0  9994
2 13205  55.0000 120.0000 0000000   0.0000  84.0000  3.95927803    15
CTC2_L_00641005-03
1 13206U 22918OL  26070.40851852  .00000000  00000+0  00000-0 0  9991
2 13206  55.0000 120.0000 0000000   0.0000 120.0000  3.95927803    17
CTC2_L_00641005-04
1 13207U 26284VO  26070.40851852  .00000000  00000+0  00000-0 0  9992
2 13207  55.0000 120.0000 0000000   0.0000 156.0000  3.95927803    17
CTC2_L_00641005-05
1 13208U 25197MA  26070.40851852  .00000000  00000+0  00000-0 0  9995
2 13208  55.0000 120.0000 0000000   0.0000 192.0000  3.95927803    18
CTC2_L_00641005-06
1 13209U 23148LB  26070.40851852  .00000000  00000+0  00000-0 0  9990
2 13209  55.0000 120.0000 0000000   0.0000 228.0000  3.95927803    19
CTC2_L_00641005-07
1 13210U 23219ID  26070.40851852  .00000000  00000+0  00000-0 0  9991
2 13210  55.0000 120.0000 0000000   0.0000 264.0000  3.95927803    11
CTC2_L_00641005-08
1 13211U 24679QJ  26070.40851852  .00000000  00000+0  00000-0 0  9993
2 13211  55.0000 120.0000 0000000   0.0000 300.0000  3.95927803    13
CTC2_L_00641005-09
1 13212U 22594CU  26070.40851852  .00000000  00000+0  00000-0 0  9998
2 13212  55.0000 120.0000 0000000   0.0000 336.0000  3.95927803    13
CTC2_L_00641005-10
1 13213U 25188OQ  26070.40851852  .00000000  00000+0  00000-0 0  9991
2 13213  55.0000 120.0000 0000000   0.0000  12.0000  3.95927803    15
CTC2_L_00641006-01
1 13214U 22152LY  26070.40851852  .00000000  00000+0  00000-0 0  9990
2 13214  55.0000 150.0000 0000000   0.0000  60.0000  3.95927803    12
CTC2_L_00641006-02
1 13215U 26910TX  26070.40851852  .00000000  00000+0  00000-0 0  9997
2 13215  55.0000 150.0000 0000000   0.0000  96.0000  3.95927803    12
CTC2_L_00641006-03
1 13216U 25808AP  26070.40851852  .00000000  00000+0  00000-0 0  9993
2 13216  55.0000 150.0000 0000000   0.0000 132.0000  3.95927803    14
CTC2_L_00641006-04
1 13217U 23773KP  26070.40851852  .00000000  00000+0  00000-0 0  9993
2 13217  55.0000 150.0000 0000000   0.0000 168.0000  3.95927803    14
CTC2_L_00641006-05
1 13218U 25691RG  26070.40851852  .00000000  00000+0  00000-0 0  9995
2 13218  55.0000 150.0000 0000000   0.0000 204.0000  3.95927803    16
CTC2_L_00641006-06
1 13219U 22834TE  26070.40851852  .00000000  00000+0  00000-0 0  9992
2 13219  55.0000 150.0000 0000000   0.0000 240.0000  3.95927803    17
CTC2_L_00641006-07
1 13220U 25567KJ  26070.40851852  .00000000  00000+0  00000-0 0  9990
2 13220  55.0000 150.0000 0000000   0.0000 276.0000  3.95927803    18
CTC2_L_00641006-08
1 13221U 25464IL  26070.40851852  .00000000  00000+0  00000-0 0  9997
2 13221  55.0000 150.0000 0000000   0.0000 312.0000  3.95927803    10
CTC2_L_00641006-09
1 13222U 25481BI  26070.40851852  .00000000  00000+0  00000-0 0  9997
2 13222  55.0000 150.0000 0000000   0.0000 348.0000  3.95927803    10
CTC2_L_00641006-10
1 13223U 25332NP  26070.40851852  .00000000  00000+0  00000-0 0  9993
2 13223  55.0000 150.0000 0000000   0.0000  24.0000  3.95927803    12
CTC2_L_00641007-01
1 13224U 24527HI  26070.40851852  .00000000  00000+0  00000-0 0  9999
2 13224  55.0000 180.0000 0000000   0.0000  72.0000  3.95927803    19
CTC2_L_00641007-02
1 13225U 26974UC  26070.40851852  .00000000  00000+0  00000-0 0  9998
2 13225  55.0000 180.0000 0000000   0.0000 108.0000  3.95927803    10
